{"type": "FeatureCollection", "features": [ {"type": "Feature", "properties": {"norad_id": 29808, "name": "FENGYUN 1C DEB", "group": "fengyun-1c-debris", "lat": 55.62835431485062, "lon": -98.11777458225868, "alt_km": 467.35708238350253, "timestamp": "2025-12-21T05:44:51.857291+00:00", "meta": {"OBJECT_NAME": "FENGYUN 1C DEB", "OBJECT_ID": "1999-025DA", "EPOCH": "2025-12-20T17:11:46.978080", "MEAN_MOTION": 15.26633556, "ECCENTRICITY": 0.00201955, "INCLINATION": 99.0139, "RA_OF_ASC_NODE": 274.6717, "ARG_OF_PERICENTER": 83.9458, "MEAN_ANOMALY": 340.254, "EPHEMERIS_TYPE": 0, "CLASSIFICATION_TYPE": "U", "NORAD_CAT_ID": 29808, "ELEMENT_SET_NO": 999, "REV_AT_EPOCH": 98347, "BSTAR": 0.0085461526, "MEAN_MOTION_DOT": 0.00232006, "MEAN_MOTION_DDOT": 0}, "tle": {"line1": "1 29808U 99025DA  25354.71651595  .00232006  00000+0  85462-2 0  9999", "line2": "2 29808  99.0139 274.6717 0020195  83.9458 340.2540 15.26633556983479"}}, "geometry": {"type": "Point", "coordinates": [-98.11777458225868, 55.62835431485062]}}, {"type": "Feature", "properties": {"norad_id": 29809, "name": "FENGYUN 1C DEB", "group": "fengyun-1c-debris", "lat": 67.89459088365756, "lon": 161.75526374895026, "alt_km": 797.865317762742, "timestamp": "2025-12-21T05:44:51.857301+00:00", "meta": {"OBJECT_NAME": "FENGYUN 1C DEB", "OBJECT_ID": "1999-025DB", "EPOCH": "2025-12-20T19:34:14.428128", "MEAN_MOTION": 14.46611467, "ECCENTRICITY": 0.0115649, "INCLINATION": 98.8612, "RA_OF_ASC_NODE": 318.7248, "ARG_OF_PERICENTER": 325.7576, "MEAN_ANOMALY": 96.7174, "EPHEMERIS_TYPE": 0, "CLASSIFICATION_TYPE": "U", "NORAD_CAT_ID": 29809, "ELEMENT_SET_NO": 999, "REV_AT_EPOCH": 99584, "BSTAR": 0.00023988102, "MEAN_MOTION_DOT": 8.86e-06, "MEAN_MOTION_DDOT": 0}, "tle": {"line1": "1 29809U 99025DB  25354.81544477  .00000886  00000+0  23988-3 0  9996", "line2": "2 29809  98.8612 318.7248 0115649 325.7576  96.7174 14.46611467995847"}}, "geometry": {"type": "Point", "coordinates": [161.75526374895026, 67.89459088365756]}}, {"type": "Feature", "properties": {"norad_id": 29810, "name": "FENGYUN 1C DEB", "group": "fengyun-1c-debris", "lat": -40.46137772278259, "lon": 40.48540454243138, "alt_km": 762.0864140843069, "timestamp": "2025-12-21T05:44:51.857311+00:00", "meta": {"OBJECT_NAME": "FENGYUN 1C DEB", "OBJECT_ID": "1999-025DC", "EPOCH": "2025-12-20T01:31:13.376928", "MEAN_MOTION": 14.29139461, "ECCENTRICITY": 0.00665899, "INCLINATION": 99.2059, "RA_OF_ASC_NODE": 31.2934, "ARG_OF_PERICENTER": 357.8856, "MEAN_ANOMALY": 33.809, "EPHEMERIS_TYPE": 0, "CLASSIFICATION_TYPE": "U", "NORAD_CAT_ID": 29810, "ELEMENT_SET_NO": 999, "REV_AT_EPOCH": 98482, "BSTAR": 0.00019437153, "MEAN_MOTION_DOT": 4.56e-06, "MEAN_MOTION_DDOT": 0}, "tle": {"line1": "1 29810U 99025DC  25354.06334927  .00000456  00000+0  19437-3 0  9999", "line2": "2 29810  99.2059  31.2934 0066589 357.8856  33.8090 14.29139461984828"}}, "geometry": {"type": "Point", "coordinates": [40.48540454243138, -40.46137772278259]}}, {"type": "Feature", "properties": {"norad_id": 29812, "name": "FENGYUN 1C DEB", "group": "fengyun-1c-debris", "lat": 81.56973165165795, "lon": 101.12677523116126, "alt_km": 964.5077673019514, "timestamp": "2025-12-21T05:44:51.857321+00:00", "meta": {"OBJECT_NAME": "FENGYUN 1C DEB", "OBJECT_ID": "1999-025DE", "EPOCH": "2025-12-19T19:08:47.973408", "MEAN_MOTION": 14.02010991, "ECCENTRICITY": 0.01438745, "INCLINATION": 98.3491, "RA_OF_ASC_NODE": 182.0506, "ARG_OF_PERICENTER": 307.933, "MEAN_ANOMALY": 67.3826, "EPHEMERIS_TYPE": 0, "CLASSIFICATION_TYPE": "U", "NORAD_CAT_ID": 29812, "ELEMENT_SET_NO": 999, "REV_AT_EPOCH": 96271, "BSTAR": 0.00079236454, "MEAN_MOTION_DOT": 1.283e-05, "MEAN_MOTION_DDOT": 0}, "tle": {"line1": "1 29812U 99025DE  25353.79777747  .00001283  00000+0  79236-3 0  9993", "line2": "2 29812  98.3491 182.0506 0143874 307.9330  67.3826 14.02010991962716"}}, "geometry": {"type": "Point", "coordinates": [101.12677523116126, 81.56973165165795]}}, {"type": "Feature", "properties": {"norad_id": 29813, "name": "FENGYUN 1C DEB", "group": "fengyun-1c-debris", "lat": -53.4367362594201, "lon": 26.78842897247816, "alt_km": 870.9894682747181, "timestamp": "2025-12-21T05:44:51.857331+00:00", "meta": {"OBJECT_NAME": "FENGYUN 1C DEB", "OBJECT_ID": "1999-025DF", "EPOCH": "2025-12-19T23:39:43.397280", "MEAN_MOTION": 14.09453456, "ECCENTRICITY": 0.00121568, "INCLINATION": 98.7267, "RA_OF_ASC_NODE": 13.6217, "ARG_OF_PERICENTER": 200.6753, "MEAN_ANOMALY": 227.8044, "EPHEMERIS_TYPE": 0, "CLASSIFICATION_TYPE": "U", "NORAD_CAT_ID": 29813, "ELEMENT_SET_NO": 999, "REV_AT_EPOCH": 97362, "BSTAR": 7.3843804e-05, "MEAN_MOTION_DOT": 8.6e-07, "MEAN_MOTION_DDOT": 0}, "tle": {"line1": "1 29813U 99025DF  25353.98591895  .00000086  00000+0  73844-4 0  9993", "line2": "2 29813  98.7267  13.6217 0012156 200.6753 227.8044 14.09453456973627"}}, "geometry": {"type": "Point", "coordinates": [26.78842897247816, -53.4367362594201]}}, {"type": "Feature", "properties": {"norad_id": 29815, "name": "FENGYUN 1C DEB", "group": "fengyun-1c-debris", "lat": 37.18792609026893, "lon": -170.26317849509988, "alt_km": 569.5590733237368, "timestamp": "2025-12-21T05:44:51.857341+00:00", "meta": {"OBJECT_NAME": "FENGYUN 1C DEB", "OBJECT_ID": "1999-025DH", "EPOCH": "2025-12-19T23:35:00.032064", "MEAN_MOTION": 14.63755679, "ECCENTRICITY": 0.0184132, "INCLINATION": 98.0554, "RA_OF_ASC_NODE": 2.3393, "ARG_OF_PERICENTER": 112.5038, "MEAN_ANOMALY": 249.5773, "EPHEMERIS_TYPE": 0, "CLASSIFICATION_TYPE": "U", "NORAD_CAT_ID": 29815, "ELEMENT_SET_NO": 999, "REV_AT_EPOCH": 99961, "BSTAR": 0.00031893, "MEAN_MOTION_DOT": 2.073e-05, "MEAN_MOTION_DDOT": 0}, "tle": {"line1": "1 29815U 99025DH  25353.98263926  .00002073  00000+0  31893-3 0  9991", "line2": "2 29815  98.0554   2.3393 0184132 112.5038 249.5773 14.63755679999611"}}, "geometry": {"type": "Point", "coordinates": [-170.26317849509988, 37.18792609026893]}}, {"type": "Feature", "properties": {"norad_id": 29816, "name": "FENGYUN 1C DEB", "group": "fengyun-1c-debris", "lat": 70.51891571939882, "lon": -170.85962024968083, "alt_km": 701.3759398027687, "timestamp": "2025-12-21T05:44:51.857351+00:00", "meta": {"OBJECT_NAME": "FENGYUN 1C DEB", "OBJECT_ID": "1999-025DJ", "EPOCH": "2025-12-20T14:43:38.852832", "MEAN_MOTION": 14.44363368, "ECCENTRICITY": 0.0237903, "INCLINATION": 98.9926, "RA_OF_ASC_NODE": 215.0713, "ARG_OF_PERICENTER": 153.6574, "MEAN_ANOMALY": 269.3389, "EPHEMERIS_TYPE": 0, "CLASSIFICATION_TYPE": "U", "NORAD_CAT_ID": 29816, "ELEMENT_SET_NO": 999, "REV_AT_EPOCH": 98301, "BSTAR": 0.00055449, "MEAN_MOTION_DOT": 2.642e-05, "MEAN_MOTION_DDOT": 0}, "tle": {"line1": "1 29816U 99025DJ  25354.61364413  .00002642  00000+0  55449-3 0  9991", "line2": "2 29816  98.9926 215.0713 0237903 153.6574 269.3389 14.44363368983018"}}, "geometry": {"type": "Point", "coordinates": [-170.85962024968083, 70.51891571939882]}}, {"type": "Feature", "properties": {"norad_id": 29817, "name": "FENGYUN 1C DEB", "group": "fengyun-1c-debris", "lat": 4.3333385569682425, "lon": 164.73551198430874, "alt_km": 855.6816892372399, "timestamp": "2025-12-21T05:44:51.857361+00:00", "meta": {"OBJECT_NAME": "FENGYUN 1C DEB", "OBJECT_ID": "1999-025DK", "EPOCH": "2025-12-20T22:25:33.430944", "MEAN_MOTION": 14.14262053, "ECCENTRICITY": 0.00118347, "INCLINATION": 98.5579, "RA_OF_ASC_NODE": 343.7895, "ARG_OF_PERICENTER": 352.5474, "MEAN_ANOMALY": 70.5991, "EPHEMERIS_TYPE": 0, "CLASSIFICATION_TYPE": "U", "NORAD_CAT_ID": 29817, "ELEMENT_SET_NO": 999, "REV_AT_EPOCH": 97511, "BSTAR": 0.00024080433, "MEAN_MOTION_DOT": 4.18e-06, "MEAN_MOTION_DDOT": 0}, "tle": {"line1": "1 29817U 99025DK  25354.93441471  .00000418  00000+0  24080-3 0  9993", "line2": "2 29817  98.5579 343.7895 0011834 352.5474  70.5991 14.14262053975110"}}, "geometry": {"type": "Point", "coordinates": [164.73551198430874, 4.3333385569682425]}}, {"type": "Feature", "properties": {"norad_id": 29818, "name": "FENGYUN 1C DEB", "group": "fengyun-1c-debris", "lat": -27.790167033823213, "lon": -123.13807048693356, "alt_km": 811.5862556256816, "timestamp": "2025-12-21T05:44:51.857371+00:00", "meta": {"OBJECT_NAME": "FENGYUN 1C DEB", "OBJECT_ID": "1999-025DL", "EPOCH": "2025-12-20T10:11:28.887360", "MEAN_MOTION": 14.04505883, "ECCENTRICITY": 0.01148482, "INCLINATION": 98.7208, "RA_OF_ASC_NODE": 231.4393, "ARG_OF_PERICENTER": 4.3272, "MEAN_ANOMALY": 170.5206, "EPHEMERIS_TYPE": 0, "CLASSIFICATION_TYPE": "U", "NORAD_CAT_ID": 29818, "ELEMENT_SET_NO": 999, "REV_AT_EPOCH": 96917, "BSTAR": 0.00023874115, "MEAN_MOTION_DOT": 3.62e-06, "MEAN_MOTION_DDOT": 0}, "tle": {"line1": "1 29818U 99025DL  25354.42463990  .00000362  00000+0  23874-3 0  9996", "line2": "2 29818  98.7208 231.4393 0114848   4.3272 170.5206 14.04505883969174"}}, "geometry": {"type": "Point", "coordinates": [-123.13807048693356, -27.790167033823213]}}, {"type": "Feature", "properties": {"norad_id": 29819, "name": "FENGYUN 1C DEB", "group": "fengyun-1c-debris", "lat": 13.235766746100841, "lon": -23.441341747668126, "alt_km": 765.8858046224686, "timestamp": "2025-12-21T05:44:51.857382+00:00", "meta": {"OBJECT_NAME": "FENGYUN 1C DEB", "OBJECT_ID": "1999-025DM", "EPOCH": "2025-12-20T11:23:55.577184", "MEAN_MOTION": 14.0220801, "ECCENTRICITY": 0.0191497, "INCLINATION": 98.7336, "RA_OF_ASC_NODE": 337.8976, "ARG_OF_PERICENTER": 45.5254, "MEAN_ANOMALY": 71.8375, "EPHEMERIS_TYPE": 0, "CLASSIFICATION_TYPE": "U", "NORAD_CAT_ID": 29819, "ELEMENT_SET_NO": 999, "REV_AT_EPOCH": 96728, "BSTAR": 0.00031555206, "MEAN_MOTION_DOT": 5.26e-06, "MEAN_MOTION_DDOT": 0}, "tle": {"line1": "1 29819U 99025DM  25354.47494881  .00000526  00000+0  31555-3 0  9992", "line2": "2 29819  98.7336 337.8976 0191497  45.5254  71.8375 14.02208010967287"}}, "geometry": {"type": "Point", "coordinates": [-23.441341747668126, 13.235766746100841]}}]}